ONEWEB-0612             
1 54675U 22166AK  24068.19986369  .00000018  00000+0  11800-4 0  9997
2 54675  87.9234  49.3552 0002158  93.1006 267.0374 13.21826376 62124
ONEWEB-0615             
1 54676U 22166AL  24068.48370462  .00000052  00000+0  94545-4 0  9996
2 54676  87.9236  49.3230 0002240  83.9618 276.1771 13.21827204 62176
ONEWEB-0655             
1 54677U 22166AM  24068.45689162  .00000088  00000+0  18219-3 0  9996
2 54677  87.9235  49.3298 0002507  80.2001 279.9415 13.21827238 62164
ONEWEB-0659             
1 54678U 22166AN  24068.47424979  .00000006  00000+0 -17879-4 0  9995
2 54678  87.9234  49.3344 0001646  84.0078 276.1243 13.21827167 62254
ONEWEB-0685             
1 54679U 22166AP  24068.47581661  .00000004  00000+0 -21733-4 0  9990
2 54679  87.9235  49.3220 0002311  86.9626 273.1772 13.21827068 62141
ONEWEB-0712             
1 54680U 22166AQ  24068.44413537  .00000037  00000+0  63393-4 0  9998
2 54680  87.9096  34.1129 0001790  68.9098 291.2224 13.16594156 63205
ONEWEB-0714             
1 54681U 22166AR  24068.02796366  .00000015  00000+0  36543-5 0  9991
2 54681  87.9236  49.3959 0002273  86.2047 273.9346 13.21826440 62206
ONEWEB-0532             
1 55140U 23004A   24067.53166678  .00002103  00000+0  53828-2 0  9998
2 55140  87.9265 171.2971 0002079 129.5285 230.6031 13.17644469 58061
